SKYSAT-C1               
1 41601U 16040C   26165.02473203  .00009530  00000+0  27170-3 0  9990
2 41601  96.9564 196.9158 0003722  64.6595 295.5035 15.36253137557384
LAPAN-A3                
1 41603U 16040E   26165.25401409  .00003268  00000+0  10443-3 0  9993
2 41603  97.1482 161.4960 0011231  35.5821 324.6168 15.33087599554369
GAOFEN-3                
1 41727U 16049A   26165.30885503  .00000220  00000+0  79809-4 0  9993
2 41727  98.4009 173.1381 0001330  98.5669 261.5671 14.42215784518232
SKYSAT-C4               
1 41771U 16058B   26165.29502412  .00016590  00000+0  31331-3 0  9999
2 41771  96.9167 187.1885 0001193 127.1695 232.9666 15.48505026545029
SKYSAT-C5               
1 41772U 16058C   26165.10415610  .00007996  00000+0  24200-3 0  9990
2 41772  97.0472 205.8819 0001370 337.9126  22.2059 15.34431439543275
SKYSAT-C2               
1 41773U 16058D   26165.01478093  .00012598  00000+0  29716-3 0  9996
2 41773  97.0167 187.2291 0004904  77.2296 282.9500 15.42005299544561
SKYSAT-C3               
1 41774U 16058E   26164.98502382  .00024284  00000+0  39861-3 0  9998
2 41774  96.9003 195.9554 0001627  87.6160 272.5280 15.52412222545617
ALSAT-1B                
1 41785U 16059C   26165.31775446  .00000276  00000+0  51205-4 0  9994
2 41785  97.7748 174.2052 0007922 230.8635 129.1869 14.72272604520151
PATHFINDER 1            
1 41787U 16059E   26165.27309866  .00000504  00000+0  96339-4 0  9991
2 41787  97.8166 164.6808 0027575 213.1043 146.8437 14.67660145519287
SCATSAT 1               
1 41790U 16059H   26165.16989644  .00000977  00000+0  13515-3 0  9999
2 41790  98.1191 228.9048 0053294 257.4800 102.0446 14.79519717101149
GOKTURK 1A              
1 41875U 16073A   26165.30436432  .00000579  00000+0  12269-3 0  9990
2 41875  98.1262  60.0245 0001442  75.8942 284.2420 14.62773562508400
RESOURCESAT-2A          
1 41877U 16074A   26165.32589421  .00000257  00000+0  13714-3 0  9991
2 41877  98.7532 238.8534 0003343  89.5029 270.6531 14.21615975493890
CARTOSAT-2D             
1 41948U 17008A   26165.32635027  .00003067  00000+0  14847-3 0  9992
2 41948  97.4112 224.6854 0003728 240.9128 119.1734 15.19312875517145
SENTINEL-2B             
1 42063U 17013A   26165.27042708 -.00000089  00000+0 -17442-4 0  9997
2 42063  98.5696 240.0858 0001163  87.6838 272.4479 14.30815564484220
CARTOSAT-2E             
1 42767U 17036C   26165.21239052  .00004419  00000+0  21298-3 0  9999
2 42767  97.4284 225.0635 0002653 336.0039  24.1071 15.19235215497699
FORMOSAT-5              
1 42920U 17049A   26165.29436872  .00000150  00000+0  48943-4 0  9996
2 42920  98.2253 240.6683 0012704  92.3413 267.9237 14.50897917466253
SENTINEL-5P             
1 42969U 17064A   26164.81855227  .00000034  00000+0  37204-4 0  9991
2 42969  98.7925 106.9737 0000969  83.5750 276.5536 14.19518491449089
SKYSAT-C11              
1 42987U 17068A   26164.97402290  .00027117  00000+0  36630-3 0  9992
2 42987  97.4343 313.6651 0000771  89.1634 270.9710 15.57742421482742
SKYSAT-C10              
1 42988U 17068B   26165.29292577  .00008763  00000+0  26380-3 0  9991
2 42988  97.4501 302.1116 0001138  93.3999 266.7374 15.34595480481910
SKYSAT-C9               
1 42989U 17068C   26165.31788233  .00013143  00000+0  31500-3 0  9992
2 42989  97.4419 303.0442 0009288 142.0607 218.1296 15.41498919482319
SKYSAT-C8               
1 42990U 17068D   26164.94313569  .00010885  00000+0  30374-3 0  9996
2 42990  97.4516 301.5459 0001480  98.0726 262.0686 15.36918542481816
SKYSAT-C7               
1 42991U 17068E   26165.13197665  .00011038  00000+0  30819-3 0  9991
2 42991  97.4527 302.7266 0007197 115.3171 244.8819 15.36871814481902
SKYSAT-C6               
1 42992U 17068F   26164.95082249  .00009439  00000+0  28781-3 0  9999
2 42992  97.4560 302.5247 0004267 145.8503 214.3015 15.34159890481821
CARTOSAT-2F             
1 43111U 18004A   26165.31035975  .00005106  00000+0  24587-3 0  9996
2 43111  97.4793 224.9728 0000540 239.8102 120.3079 15.19196364466899
GAOFEN-1 02             
1 43259U 18031A   26165.31658260  .00000398  00000+0  64629-4 0  9997
2 43259  98.0533 227.8514 0003984  41.1417 319.0093 14.76451782442273
GAOFEN-1 03             
1 43260U 18031B   26165.29475414  .00000647  00000+0  10043-3 0  9991
2 43260  98.0524 227.6886 0003799  84.8628 275.3015 14.76465342442261
GAOFEN-1 04             
1 43262U 18031D   26165.27043780  .00000860  00000+0  13098-3 0  9998
2 43262  98.0534 227.8544 0002229  85.4997 274.6467 14.76475890442251
SENTINEL-3B             
1 43437U 18039A   26165.17411822  .00000102  00000+0  60315-4 0  9999
2 43437  98.6249 232.7495 0000753  83.4735 276.6531 14.26734006423695
GAOFEN-5 01             
1 43461U 18043A   26165.18451109  .00000278  00000+0  67286-4 0  9992
2 43461  98.4568 136.7077 0003036  88.4922 271.6626 14.60603461431252
GAOFEN-6                
1 43484U 18048A   26165.29280566  .00000777  00000+0  11836-3 0  9994
2 43484  97.8551 228.1136 0011625 176.7588 183.3699 14.76596144432960
