OBJECT_NAME,OBJECT_ID,EPOCH,MEAN_MOTION,ECCENTRICITY,INCLINATION,RA_OF_ASC_NODE,ARG_OF_PERICENTER,MEAN_ANOMALY,EPHEMERIS_TYPE,CLASSIFICATION_TYPE,NORAD_CAT_ID,ELEMENT_SET_NO,REV_AT_EPOCH,BSTAR,MEAN_MOTION_DOT,MEAN_MOTION_DDOT
SKYSAT-C1,2016-040C,2026-06-14T00:35:36.847392,15.36253137,.00037221,96.9564,196.9158,64.6595,295.5035,0,U,41601,999,55738,.27170243E-3,.953E-4,0
LAPAN-A3,2016-040E,2026-06-14T06:05:46.817376,15.33087599,.00112316,97.1482,161.4960,35.5821,324.6168,0,U,41603,999,55436,.10443456E-3,.3268E-4,0
GAOFEN-3,2016-049A,2026-06-14T07:24:45.074592,14.42215784,.00013309,98.4009,173.1381,98.5669,261.5671,0,U,41727,999,51823,.79808954E-4,.22E-5,0
SKYSAT-C4,2016-058B,2026-06-14T07:04:50.083968,15.48505026,.00011938,96.9167,187.1885,127.1695,232.9666,0,U,41771,999,54502,.31330763E-3,.1659E-3,0
SKYSAT-C5,2016-058C,2026-06-14T02:29:59.087040,15.34431439,.00013708,97.0472,205.8819,337.9126,22.2059,0,U,41772,999,54327,.24200096E-3,.7996E-4,0
SKYSAT-C2,2016-058D,2026-06-14T00:21:17.072352,15.42005299,.0004904,97.0167,187.2291,77.2296,282.9500,0,U,41773,999,54456,.29716067E-3,.12598E-3,0
SKYSAT-C3,2016-058E,2026-06-13T23:38:26.058048,15.52412222,.00016272,96.9003,195.9554,87.6160,272.5280,0,U,41774,999,54561,.39860775E-3,.24284E-3,0
ALSAT-1B,2016-059C,2026-06-14T07:37:33.985344,14.72272604,.00079221,97.7748,174.2052,230.8635,129.1869,0,U,41785,999,52015,.51204589E-4,.276E-5,0
PATHFINDER 1,2016-059E,2026-06-14T06:33:15.724224,14.67660145,.0027575,97.8166,164.6808,213.1043,146.8437,0,U,41787,999,51928,.96338735E-4,.504E-5,0
SCATSAT 1,2016-059H,2026-06-14T04:04:39.052416,14.79519717,.00532941,98.1191,228.9048,257.4800,102.0446,0,U,41790,999,10114,.13514628E-3,.977E-5,0
GOKTURK 1A,2016-073A,2026-06-14T07:18:17.077248,14.62773562,.00014428,98.1262,60.0245,75.8942,284.2420,0,U,41875,999,50840,.12269246E-3,.579E-5,0
RESOURCESAT-2A,2016-074A,2026-06-14T07:49:17.259744,14.21615975,.00033431,98.7532,238.8534,89.5029,270.6531,0,U,41877,999,49389,.13713598E-3,.257E-5,0
CARTOSAT-2D,2017-008A,2026-06-14T07:49:56.663328,15.19312875,.00037289,97.4112,224.6854,240.9128,119.1734,0,U,41948,999,51714,.14847063E-3,.3067E-4,0
SENTINEL-2B,2017-013A,2026-06-14T06:29:24.899712,14.30815564,.00011632,98.5696,240.0858,87.6838,272.4479,0,U,42063,999,48422,-.17441548E-4,-.89E-6,0
CARTOSAT-2E,2017-036C,2026-06-14T05:05:50.540928,15.19235215,.00026535,97.4284,225.0635,336.0039,24.1071,0,U,42767,999,49769,.21298424E-3,.4419E-4,0
FORMOSAT-5,2017-049A,2026-06-14T07:03:53.457408,14.50897917,.00127048,98.2253,240.6683,92.3413,267.9237,0,U,42920,999,46625,.48942938E-4,.15E-5,0
SENTINEL-5P,2017-064A,2026-06-13T19:38:42.916128,14.19518491,.00009694,98.7925,106.9737,83.5750,276.5536,0,U,42969,999,44908,.37204499E-4,.34E-6,0
SKYSAT-C11,2017-068A,2026-06-13T23:22:35.578560,15.57742421,.00007716,97.4343,313.6651,89.1634,270.9710,0,U,42987,999,48274,.36630254E-3,.27117E-3,0
SKYSAT-C10,2017-068B,2026-06-14T07:01:48.786528,15.34595480,.00011386,97.4501,302.1116,93.3999,266.7374,0,U,42988,999,48191,.26380021E-3,.8763E-4,0
SKYSAT-C9,2017-068C,2026-06-14T07:37:45.033312,15.41498919,.00092886,97.4419,303.0442,142.0607,218.1296,0,U,42989,999,48231,.31499539E-3,.13143E-3,0
SKYSAT-C8,2017-068D,2026-06-13T22:38:06.923616,15.36918542,.000148,97.4516,301.5459,98.0726,262.0686,0,U,42990,999,48181,.30374E-3,.10885E-3,0
SKYSAT-C7,2017-068E,2026-06-14T03:10:02.782560,15.36871814,.00071977,97.4527,302.7266,115.3171,244.8819,0,U,42991,999,48190,.30819149E-3,.11038E-3,0
SKYSAT-C6,2017-068F,2026-06-13T22:49:11.063136,15.34159890,.00042678,97.4560,302.5247,145.8503,214.3015,0,U,42992,999,48182,.28780502E-3,.9439E-4,0
CARTOSAT-2F,2018-004A,2026-06-14T07:26:55.082400,15.19196364,.000054,97.4793,224.9728,239.8102,120.3079,0,U,43111,999,46689,.2458677E-3,.5106E-4,0
GAOFEN-1 02,2018-031A,2026-06-14T07:35:52.736640,14.76451782,.00039843,98.0533,227.8514,41.1417,319.0093,0,U,43259,999,44227,.64629004E-4,.398E-5,0
GAOFEN-1 03,2018-031B,2026-06-14T07:04:26.757696,14.76465342,.00037997,98.0524,227.6886,84.8628,275.3015,0,U,43260,999,44226,.10042787E-3,.647E-5,0
GAOFEN-1 04,2018-031D,2026-06-14T06:29:25.825920,14.76475890,.00022292,98.0534,227.8544,85.4997,274.6467,0,U,43262,999,44225,.13098032E-3,.86E-5,0
SENTINEL-3B,2018-039A,2026-06-14T04:10:43.814208,14.26734006,.00007536,98.6249,232.7495,83.4735,276.6531,0,U,43437,999,42369,.6031543E-4,.102E-5,0
GAOFEN-5 01,2018-043A,2026-06-14T04:25:41.758176,14.60603461,.0003036,98.4568,136.7077,88.4922,271.6626,0,U,43461,999,43125,.67286273E-4,.278E-5,0
GAOFEN-6,2018-048A,2026-06-14T07:01:38.409024,14.76596144,.00116251,97.8551,228.1136,176.7588,183.3699,0,U,43484,999,43296,.11836058E-3,.777E-5,0
